ONEWEB-0220             
1 48232U 21031Y   24006.76772575 -.00000378  00000+0 -10540-2 0  9995
2 48232  87.8979 107.3556 0001733  90.6363 269.4965 13.14501850131168
ONEWEB-0199             
1 48234U 21031AA  24006.78042196 -.00000003  00000+0 -42757-4 0  9990
2 48234  87.8972 107.3321 0001737 100.7454 259.3872 13.14503251131028
ONEWEB-0203             
1 48235U 21031AB  24006.77090317 -.00000179  00000+0 -51854-3 0  9999
2 48235  87.8975 107.3344 0001857 113.5177 246.6148 13.14502809131038
ONEWEB-0197             
1 48236U 21031AC  24006.82244719  .00000246  00000+0  62823-3 0  9994
2 48236  87.8988 107.3309 0001274 107.3822 252.7447 13.14500792130954
ONEWEB-0191             
1 48239U 21031AF  24006.82801009 -.00001081  00000+0 -29521-2 0  9995
2 48239  87.8985 107.3183 0001735 112.1187 248.0127 13.14495822130932
